[{"OBJECT_NAME":"HONGHU 2","OBJECT_ID":"2023-193C","EPOCH":"2026-03-09T23:21:07.139520","MEAN_MOTION":15.21543878,"ECCENTRICITY":0.00399876,"INCLINATION":97.2779,"RA_OF_ASC_NODE":62.3901,"ARG_OF_PERICENTER":264.1736,"MEAN_ANOMALY":95.4941,"EPHEMERIS_TYPE":0,"CLASSIFICATION_TYPE":"U","NORAD_CAT_ID":58555,"ELEMENT_SET_NO":999,"REV_AT_EPOCH":8691,"BSTAR":0.0061775359,"MEAN_MOTION_DOT":0.00144707,"MEAN_MOTION_DDOT":0},{"OBJECT_NAME":"STARLINK-32701","OBJECT_ID":"2025-003Z","EPOCH":"2026-03-09T23:10:54.661152","MEAN_MOTION":15.27600706,"ECCENTRICITY":0.00032858,"INCLINATION":42.9999,"RA_OF_ASC_NODE":287.4223,"ARG_OF_PERICENTER":242.1774,"MEAN_ANOMALY":117.8745,"EPHEMERIS_TYPE":0,"CLASSIFICATION_TYPE":"U","NORAD_CAT_ID":62510,"ELEMENT_SET_NO":999,"REV_AT_EPOCH":6659,"BSTAR":0.0014399808,"MEAN_MOTION_DOT":0.00039605,"MEAN_MOTION_DDOT":0}]
